ONEWEB-0068             
1 45446U 20020Y   26155.10659415 -.00000167  00000+0 -50773-3 0  9997
2 45446  87.8907  23.6658 0001876  76.1752 283.9584 13.11415057300880
ONEWEB-0046             
1 45447U 20020Z   26155.09825166  .00000299  00000+0  80761-3 0  9998
2 45447  87.8901  23.6747 0002060  82.5464 277.5898 13.11416488300898
ONEWEB-0063             
1 45448U 20020AA  26155.12721091 -.00000468  00000+0 -13557-2 0  9993
2 45448  87.8907  23.6671 0002092  90.7285 269.4083 13.11418844300982
ONEWEB-0019             
1 45449U 20020AB  26155.08964571  .00000498  00000+0  13691-2 0  9991
2 45449  87.8901  23.6614 0001644  84.3213 275.8103 13.11415785300824
ONEWEB-0094             
1 45450U 20020AC  26155.06597084  .00000000  00000+0 -32821-4 0  9990
2 45450  87.9154   8.4579 0001679  78.7041 281.4279 13.17650468304581
ONEWEB-0087             
1 45451U 20020AD  26155.06080975 -.00000168  00000+0 -50897-3 0  9995
2 45451  87.8916  23.6532 0001860  73.3520 286.7813 13.11418247300860
ONEWEB-0082             
1 45452U 20020AE  26155.05743176 -.00000365  00000+0 -10662-2 0  9998
2 45452  87.8909  23.6714 0002086  74.3468 285.7890 13.11418578300959
ONEWEB-0050             
1 45453U 20020AF  26154.64660694  .00002780  00000+0  28399-3 0  9994
2 45453  88.9299 235.0483 0005080  55.5612 304.6097 14.90320001338362
ONEWEB-0034             
1 45454U 20020AG  26155.09329803  .00000510  00000+0  14133-2 0  9998
2 45454  87.8904  23.6736 0001771  85.0666 275.0664 13.10933452300873
ONEWEB-0060             
1 45455U 20020AH  26155.12621710 -.00000527  00000+0 -15237-2 0  9991
2 45455  87.8902  23.6656 0001855  53.0932 307.0366 13.11417809300832
ONEWEB-0086             
1 45456U 20020AJ  26155.10501984  .00000922  00000+0  25655-2 0  9992
2 45456  87.8921  23.6665 0001336  43.5537 316.5697 13.11423922300894
ONEWEB-0088             
1 45457U 20020AK  26155.08300554  .00000560  00000+0  15448-2 0  9997
2 45457  87.8919  23.6409 0002247  85.1549 274.9836 13.11417134300828
ONEWEB-0102             
1 47258U 20100A   26155.02117134 -.00000031  00000+0 -12268-3 0  9994
2 47258  87.8941 353.2947 0001470  88.0745 272.0552 13.12442743263007
ONEWEB-0109             
1 47259U 20100B   26155.02963890 -.00000281  00000+0 -81652-3 0  9993
2 47259  87.8950 353.2753 0001702  92.3931 267.7393 13.12442532262836
ONEWEB-0110             
1 47260U 20100C   26155.05674805 -.00000036  00000+0 -13426-3 0  9995
2 47260  87.8948 353.2540 0001579  80.4782 279.6525 13.12445006263001
ONEWEB-0111             
1 47261U 20100D   26155.08723636  .00000273  00000+0  72423-3 0  9999
2 47261  87.8952 353.2671 0001783  81.7044 278.4286 13.12443204262844
ONEWEB-0114             
1 47262U 20100E   26155.11773142 -.00000424  00000+0 -12151-2 0  9992
2 47262  87.8952 353.2577 0001794 102.1340 257.9989 13.12444979262807
ONEWEB-0117             
1 47263U 20100F   26155.03302534 -.00000341  00000+0 -98416-3 0  9994
2 47263  87.8949 353.2664 0001756  87.5133 272.6197 13.12442029262804
ONEWEB-0118             
1 47264U 20100G   26155.06691067  .00000354  00000+0  94846-3 0  9995
2 47264  87.8949 353.2623 0001998  95.6634 264.4722 13.12444017263009
ONEWEB-0119             
1 47265U 20100H   26155.09232767  .00000460  00000+0  12445-2 0  9999
2 47265  87.8938 353.2750 0001621  82.8912 277.2401 13.12442538262987
ONEWEB-0120             
1 47266U 20100J   26155.11618229 -.00000409  00000+0 -11734-2 0  9999
2 47266  87.8940 353.2711 0001636  96.3351 263.7964 13.12444416263017
ONEWEB-0121             
1 47267U 20100K   26155.02794542 -.00000245  00000+0 -71745-3 0  9990
2 47267  87.8952 353.2738 0001890  78.4200 281.7141 13.12441884262917
ONEWEB-0122             
1 47268U 20100L   26155.09826031 -.00000041  00000+0 -14802-3 0  9992
2 47268  87.8959 353.2651 0001517  93.8363 266.2939 13.12440849262830
ONEWEB-0123             
1 47269U 20100M   26155.01778784  .00000123  00000+0  30643-3 0  9996
2 47269  87.8942 353.2893 0001834  89.7977 270.3362 13.12442645262964
ONEWEB-0124             
1 47270U 20100N   26155.08386347  .00000352  00000+0  94311-3 0  9991
2 47270  87.8939 353.2785 0001846  86.0860 274.0479 13.12442880262855
ONEWEB-0125             
1 47271U 20100P   26155.06183465 -.00000028  00000+0 -11289-3 0  9991
2 47271  87.8954 353.2654 0002143  86.6977 273.4397 13.12444591262914
ONEWEB-0126             
1 47272U 20100Q   26155.08230677  .00000393  00000+0  10560-2 0  9995
2 47272  87.8947 353.2777 0001734  90.7451 269.3876 13.12441755262983
ONEWEB-0127             
1 47273U 20100R   26155.04827235 -.00000284  00000+0 -82383-3 0  9998
2 47273  87.8940 353.2838 0001726  89.1351 270.9976 13.12443998263001
ONEWEB-0128             
1 47274U 20100S   26155.07029799  .00000403  00000+0  10850-2 0  9991
2 47274  87.8940 353.2936 0001573  83.1746 276.9562 13.12443205263023
ONEWEB-0129             
1 47275U 20100T   26155.04996516 -.00000274  00000+0 -79621-3 0  9999
2 47275  87.8950 353.2699 0001788 125.4258 234.7038 13.12443154262951
